OBJECT_NAME,OBJECT_ID,EPOCH,MEAN_MOTION,ECCENTRICITY,INCLINATION,RA_OF_ASC_NODE,ARG_OF_PERICENTER,MEAN_ANOMALY,EPHEMERIS_TYPE,CLASSIFICATION_TYPE,NORAD_CAT_ID,ELEMENT_SET_NO,REV_AT_EPOCH,BSTAR,MEAN_MOTION_DOT,MEAN_MOTION_DDOT
ONEWEB-0198,2021-031G,2026-06-17T20:03:19.970784,13.14502756,.00020972,87.8956,289.5823,112.7614,247.3738,0,U,48216,999,24857,-.40601609E-3,-.138E-5,0
ONEWEB-0189,2021-031H,2026-06-17T20:21:24.073920,13.14503301,.00020247,87.8967,289.5659,110.8622,249.2725,0,U,48217,999,24831,.23963448E-3,.102E-5,0
ONEWEB-0196,2021-031J,2026-06-17T19:49:25.764960,13.14502945,.00020292,87.8965,289.5792,104.6623,255.4732,0,U,48218,999,24831,-.64822777E-3,-.228E-5,0
ONEWEB-0183,2021-031K,2026-06-17T21:02:30.240960,13.14503141,.00020613,87.8965,289.5672,96.2653,263.8711,0,U,48219,999,24841,.22622678E-3,.97E-6,0
ONEWEB-0185,2021-031L,2026-06-17T19:50:33.595872,13.14502868,.00023524,87.8973,289.5708,100.8844,259.2550,0,U,48220,999,24833,-.6802398E-3,-.239E-5,0
ONEWEB-0187,2021-031M,2026-06-17T21:11:25.428480,13.14509206,.00022608,87.8972,289.5730,102.2495,257.8888,0,U,48221,999,24835,-.62316188E-2,-.2297E-4,0
ONEWEB-0192,2021-031N,2026-06-17T20:28:14.449728,13.14501780,.00019142,87.8964,289.5714,104.4244,255.7099,0,U,48222,999,24826,.39990438E-3,.161E-5,0
ONEWEB-0219,2021-031P,2026-06-17T19:58:32.124000,13.14501481,.00021761,87.8966,289.5677,103.4666,256.6707,0,U,48223,999,24846,-.48245349E-3,-.166E-5,0
ONEWEB-0202,2021-031Q,2026-06-17T19:31:09.986592,13.14502848,.0001888,87.8967,289.5837,121.4744,238.6571,0,U,48224,999,24844,-.4229278E-3,-.144E-5,0
ONEWEB-0204,2021-031R,2026-06-17T20:20:15.413568,13.14506851,.0002129,87.8970,289.5716,94.7676,265.3697,0,U,48225,999,24834,.16694615E-2,.632E-5,0
ONEWEB-0205,2021-031S,2026-06-17T19:44:50.196480,13.14501234,.00021893,87.8975,289.5698,105.8673,254.2699,0,U,48226,999,24835,-.65126641E-3,-.229E-5,0
ONEWEB-0206,2021-031T,2026-06-17T20:55:38.847360,13.14503832,.000178,87.8970,289.5615,96.6996,263.4337,0,U,48227,999,24831,.41910941E-3,.168E-5,0
ONEWEB-0182,2021-031U,2026-06-17T20:48:48.274560,13.14502809,.00020391,87.8965,289.5701,94.9976,265.1386,0,U,48228,999,24852,.63313412E-3,.248E-5,0
ONEWEB-0186,2021-031V,2026-06-17T21:04:47.077824,13.14502748,.00020098,87.8977,289.5584,102.2795,257.8560,0,U,48229,999,24847,.2136686E-3,.92E-6,0
ONEWEB-0181,2021-031W,2026-06-17T20:32:49.180992,13.14503702,.00020102,87.8954,289.5922,106.3454,253.7897,0,U,48230,999,24832,.52729165E-3,.208E-5,0
ONEWEB-0188,2021-031X,2026-06-17T19:38:00.021984,13.14504123,.00019848,87.8958,289.5988,101.0030,259.1323,0,U,48231,999,24822,-.48658536E-3,-.168E-5,0
ONEWEB-0220,2021-031Y,2026-06-17T18:45:28.661472,13.14502572,.00022433,87.8973,289.5794,103.9391,256.1988,0,U,48232,999,24848,.57989103E-3,.228E-5,0
ONEWEB-0165,2021-031Z,2026-06-17T21:16:11.975808,13.14501910,.00019879,87.8967,289.5712,112.0529,248.0812,0,U,48233,999,24845,-.11934933E-3,-.31E-6,0
ONEWEB-0199,2021-031AA,2026-06-17T20:53:22.107264,13.14502806,.00018063,87.8974,289.5605,95.5101,264.6235,0,U,48234,999,24835,.52081421E-3,.206E-5,0
ONEWEB-0203,2021-031AB,2026-06-17T20:39:40.466592,13.14502615,.00017879,87.8972,289.5657,103.1827,256.9502,0,U,48235,999,24836,.82122082E-3,.317E-5,0
ONEWEB-0197,2021-031AC,2026-06-17T20:02:55.378752,13.14504166,.00021987,87.8962,289.5569,97.1917,262.9463,0,U,48236,999,24827,-.48458144E-3,-.167E-5,0
ONEWEB-0194,2021-031AD,2026-06-17T19:33:26.732736,13.14502209,.00016966,87.8967,289.5831,98.4554,261.6768,0,U,48237,999,24844,-.49660619E-3,-.171E-5,0
ONEWEB-0193,2021-031AE,2026-06-17T19:56:16.414656,13.14503274,.00015251,87.8967,289.5705,95.1190,265.0113,0,U,48238,999,24839,-.51577933E-3,-.178E-5,0
ONEWEB-0191,2021-031AF,2026-06-17T20:12:16.098336,13.14503217,.0002051,87.8973,289.5668,96.1166,264.0197,0,U,48239,999,24825,-.65276659E-4,-.11E-6,0
ONEWEB-0195,2021-031AG,2026-06-17T19:39:08.576064,13.14502139,.000206,87.8972,289.5717,111.3114,248.8235,0,U,48240,999,24823,-.48242846E-3,-.166E-5,0
ONEWEB-0201,2021-031AH,2026-06-17T21:11:48.738336,13.14504302,.00022443,87.8965,289.5752,97.6796,262.4589,0,U,48241,999,24847,-.15248506E-3,-.44E-6,0
ONEWEB-0207,2021-031AJ,2026-06-17T20:43:05.612160,13.14502894,.00021889,87.8971,289.5641,98.3392,261.7985,0,U,48242,999,24838,.65371105E-3,.255E-5,0
ONEWEB-0208,2021-031AK,2026-06-17T20:16:49.855872,13.14503601,.00019648,87.8967,289.5741,111.2595,248.8744,0,U,48243,999,24839,.27789343E-3,.116E-5,0
ONEWEB-0200,2021-031AL,2026-06-17T21:13:54.865920,13.14502512,.00020036,87.8976,289.5529,102.9213,257.2140,0,U,48244,999,24832,-.2205239E-3,-.69E-6,0
ONEWEB-0217,2021-031AM,2026-06-17T19:47:07.104192,13.14512584,.00019693,87.8972,289.5694,114.6002,245.5333,0,U,48245,999,24826,-.65014304E-2,-.2397E-4,0
