[
  {
    "name": "ONEWEB-0198",
    "noradId": "48216",
    "line1": "1 48216U 21031G   26168.83564781 -.00000138  00000+0 -40602-3 0  9991",
    "line2": "2 48216  87.8956 289.5823 0002097 112.7614 247.3738 13.14502756248577"
  },
  {
    "name": "ONEWEB-0189",
    "noradId": "48217",
    "line1": "1 48217U 21031H   26168.84819530  .00000102  00000+0  23963-3 0  9998",
    "line2": "2 48217  87.8967 289.5659 0002024 110.8622 249.2725 13.14503301248311"
  },
  {
    "name": "ONEWEB-0196",
    "noradId": "48218",
    "line1": "1 48218U 21031J   26168.82599265 -.00000228  00000+0 -64823-3 0  9998",
    "line2": "2 48218  87.8965 289.5792 0002029 104.6623 255.4732 13.14502945248315"
  },
  {
    "name": "ONEWEB-0183",
    "noradId": "48219",
    "line1": "1 48219U 21031K   26168.87673890  .00000097  00000+0  22623-3 0  9995",
    "line2": "2 48219  87.8965 289.5672 0002061  96.2653 263.8711 13.14503141248418"
  },
  {
    "name": "ONEWEB-0185",
    "noradId": "48220",
    "line1": "1 48220U 21031L   26168.82677773 -.00000239  00000+0 -68024-3 0  9991",
    "line2": "2 48220  87.8973 289.5708 0002352 100.8844 259.2550 13.14502868248332"
  },
  {
    "name": "ONEWEB-0187",
    "noradId": "48221",
    "line1": "1 48221U 21031M   26168.88293320 -.00002297  00000+0 -62316-2 0  9993",
    "line2": "2 48221  87.8972 289.5730 0002260 102.2495 257.8888 13.14509206248356"
  },
  {
    "name": "ONEWEB-0192",
    "noradId": "48222",
    "line1": "1 48222U 21031N   26168.85294502  .00000161  00000+0  39990-3 0  9993",
    "line2": "2 48222  87.8964 289.5714 0001914 104.4244 255.7099 13.14501780248261"
  },
  {
    "name": "ONEWEB-0219",
    "noradId": "48223",
    "line1": "1 48223U 21031P   26168.83231625 -.00000166  00000+0 -48245-3 0  9999",
    "line2": "2 48223  87.8966 289.5677 0002176 103.4666 256.6707 13.14501481248466"
  },
  {
    "name": "ONEWEB-0202",
    "noradId": "48224",
    "line1": "1 48224U 21031Q   26168.81331003 -.00000144  00000+0 -42293-3 0  9992",
    "line2": "2 48224  87.8967 289.5837 0001888 121.4744 238.6571 13.14502848248447"
  },
  {
    "name": "ONEWEB-0204",
    "noradId": "48225",
    "line1": "1 48225U 21031R   26168.84740062  .00000632  00000+0  16695-2 0  9991",
    "line2": "2 48225  87.8970 289.5716 0002129  94.7676 265.3697 13.14506851248346"
  },
  {
    "name": "ONEWEB-0205",
    "noradId": "48226",
    "line1": "1 48226U 21031S   26168.82280320 -.00000229  00000+0 -65127-3 0  9995",
    "line2": "2 48226  87.8975 289.5698 0002189 105.8673 254.2699 13.14501234248358"
  },
  {
    "name": "ONEWEB-0206",
    "noradId": "48227",
    "line1": "1 48227U 21031T   26168.87197740  .00000168  00000+0  41911-3 0  9999",
    "line2": "2 48227  87.8970 289.5615 0001780  96.6996 263.4337 13.14503832248317"
  },
  {
    "name": "ONEWEB-0182",
    "noradId": "48228",
    "line1": "1 48228U 21031U   26168.86722540  .00000248  00000+0  63313-3 0  9990",
    "line2": "2 48228  87.8965 289.5701 0002039  94.9976 265.1386 13.14502809248524"
  },
  {
    "name": "ONEWEB-0186",
    "noradId": "48229",
    "line1": "1 48229U 21031V   26168.87832266  .00000092  00000+0  21367-3 0  9999",
    "line2": "2 48229  87.8977 289.5584 0002009 102.2795 257.8560 13.14502748248474"
  },
  {
    "name": "ONEWEB-0181",
    "noradId": "48230",
    "line1": "1 48230U 21031W   26168.85612478  .00000208  00000+0  52729-3 0  9995",
    "line2": "2 48230  87.8954 289.5922 0002010 106.3454 253.7897 13.14503702248329"
  },
  {
    "name": "ONEWEB-0188",
    "noradId": "48231",
    "line1": "1 48231U 21031X   26168.81805581 -.00000168  00000+0 -48659-3 0  9995",
    "line2": "2 48231  87.8958 289.5988 0001984 101.0030 259.1323 13.14504123248228"
  },
  {
    "name": "ONEWEB-0220",
    "noradId": "48232",
    "line1": "1 48232U 21031Y   26168.78158173  .00000228  00000+0  57989-3 0  9991",
    "line2": "2 48232  87.8973 289.5794 0002243 103.9391 256.1988 13.14502572248489"
  },
  {
    "name": "ONEWEB-0165",
    "noradId": "48233",
    "line1": "1 48233U 21031Z   26168.88624972 -.00000031  00000+0 -11935-3 0  9993",
    "line2": "2 48233  87.8967 289.5712 0001987 112.0529 248.0812 13.14501910248459"
  },
  {
    "name": "ONEWEB-0199",
    "noradId": "48234",
    "line1": "1 48234U 21031AA  26168.87039476  .00000206  00000+0  52081-3 0  9991",
    "line2": "2 48234  87.8974 289.5605 0001806  95.5101 264.6235 13.14502806248357"
  },
  {
    "name": "ONEWEB-0203",
    "noradId": "48235",
    "line1": "1 48235U 21031AB  26168.86088503  .00000317  00000+0  82122-3 0  9998",
    "line2": "2 48235  87.8972 289.5657 0001787 103.1827 256.9502 13.14502615248362"
  },
  {
    "name": "ONEWEB-0197",
    "noradId": "48236",
    "line1": "1 48236U 21031AC  26168.83536318 -.00000167  00000+0 -48458-3 0  9997",
    "line2": "2 48236  87.8962 289.5569 0002198  97.1917 262.9463 13.14504166248279"
  },
  {
    "name": "ONEWEB-0194",
    "noradId": "48237",
    "line1": "1 48237U 21031AD  26168.81489274 -.00000171  00000+0 -49661-3 0  9996",
    "line2": "2 48237  87.8967 289.5831 0001696  98.4554 261.6768 13.14502209248449"
  },
  {
    "name": "ONEWEB-0193",
    "noradId": "48238",
    "line1": "1 48238U 21031AE  26168.83074554 -.00000178  00000+0 -51578-3 0  9997",
    "line2": "2 48238  87.8967 289.5705 0001525  95.1190 265.0113 13.14503274248390"
  },
  {
    "name": "ONEWEB-0191",
    "noradId": "48239",
    "line1": "1 48239U 21031AF  26168.84185299 -.00000011  00000+0 -65277-4 0  9996",
    "line2": "2 48239  87.8973 289.5668 0002051  96.1166 264.0197 13.14503217248258"
  },
  {
    "name": "ONEWEB-0195",
    "noradId": "48240",
    "line1": "1 48240U 21031AG  26168.81884926 -.00000166  00000+0 -48243-3 0  9992",
    "line2": "2 48240  87.8972 289.5717 0002060 111.3114 248.8235 13.14502139248230"
  },
  {
    "name": "ONEWEB-0201",
    "noradId": "48241",
    "line1": "1 48241U 21031AH  26168.88320299 -.00000044  00000+0 -15249-3 0  9993",
    "line2": "2 48241  87.8965 289.5752 0002244  97.6796 262.4589 13.14504302248472"
  },
  {
    "name": "ONEWEB-0207",
    "noradId": "48242",
    "line1": "1 48242U 21031AJ  26168.86325940  .00000255  00000+0  65371-3 0  9993",
    "line2": "2 48242  87.8971 289.5641 0002188  98.3392 261.7985 13.14502894248380"
  },
  {
    "name": "ONEWEB-0208",
    "noradId": "48243",
    "line1": "1 48243U 21031AK  26168.84502148  .00000116  00000+0  27789-3 0  9996",
    "line2": "2 48243  87.8967 289.5741 0001964 111.2595 248.8744 13.14503601248395"
  },
  {
    "name": "ONEWEB-0200",
    "noradId": "48244",
    "line1": "1 48244U 21031AL  26168.88466280 -.00000069  00000+0 -22052-3 0  9994",
    "line2": "2 48244  87.8976 289.5529 0002003 102.9213 257.2140 13.14502512248326"
  },
  {
    "name": "ONEWEB-0217",
    "noradId": "48245",
    "line1": "1 48245U 21031AM  26168.82438778 -.00002397  00000+0 -65014-2 0  9990",
    "line2": "2 48245  87.8972 289.5694 0001969 114.6002 245.5333 13.14512584248269"
  }
]